#dP2025  1 27 12  0  0.00000000      96 __u+U IGS20 EXT  IAC
## 2351 129600.00000000   900.00000000 60702 0.5000000000000
+   53   G01G02G03G04G05G06G07G08G09G10G11G12G13G14G15G16G17
+        G18G19G20G21G22G23G24G25G26G27G28G29G30G31G32R01R02
+        R03R04R05R06R07R08R09R11R12R14R15R16R17R18R19R20R21
+        R22R24  0  0  0  0  0  0  0  0  0  0  0  0  0  0  0
+          0  0  0  0  0  0  0  0  0  0  0  0  0  0  0  0  0
++         8  8  7  8  8  6  7  6  7  7  7  5  6  6  9  7  7
++         8  7  8  7  6  8  8  8  6  6  7  6  6  7  7  9  8
++         7  8  8  8  7  7  9  8  8  8  7  7  7  9 10  7  8
++         8  7  0  0  0  0  0  0  0  0  0  0  0  0  0  0  0
++         0  0  0  0  0  0  0  0  0  0  0  0  0  0  0  0  0
%c M  cc GPS ccc cccc cccc cccc cccc ccccc ccccc ccccc ccccc
%c cc cc ccc ccc cccc cccc cccc cccc ccccc ccccc ccccc ccccc
%f  0.0000000  0.000000000  0.00000000000  0.000000000000000
%f  0.0000000  0.000000000  0.00000000000  0.000000000000000
%i    0    0    0    0      0      0      0      0         0
%i    0    0    0    0      0      0      0      0         0
/* IAC                                ULTRA-RAPID PREDICTION
/* S/V CLOCKS ARE ALIGNED TO GNSS TIME                      
/* G:C1WC2W R:C1PC2P E:C1XC5X C:C2IC6I J:C1CC2S             
/* PCV:IGS20_2350 OL/AL:FES2004  NONE     YN ORB:CoN CLK:CoN
*  2025 01 28  4 30  0.00000000
PG01  -5006.009907  16793.049599 -19952.115433     81.911892
PG02  -6168.433019  17895.709235 -18000.136846   -257.171464
PG03   5912.404583  18787.306540 -18038.663906    654.029059
PG04   -136.367170  26106.289072   4437.709203    518.642759
PG05   8551.663714 -12137.370938  21850.882731   -200.300629
PG06  24746.437684  -4959.958368  -8414.904216   -148.915581
PG07  11799.705761  11428.621056  21483.360189    -13.393520
PG08  -6081.401447  24640.918891   6838.884826    469.573618
PG09   7397.439706  22144.084069  12512.384759    545.661873
PG10 -23335.510137  -9262.328251  -8928.415627   -295.096120
PG11  23420.605561 -12052.285497   3199.807564   -750.165533
PG12  -2047.396466 -18748.184761 -19011.666444   -566.977315
PG13  13306.442882 -18847.807626  12705.957763    694.801034
PG14  23206.315812  11887.527977  -5652.688606    588.150049
PG15   2422.053961 -25598.483155   5835.306373    256.784839
PG16 -14764.586127   6622.077817  20781.576440    -67.062984
PG17  13353.181610   8505.476676 -20886.076908    453.650024
PG18 -13598.169623  -9452.252983  20847.910317   -656.053679
PG19  15581.283357  -2217.796945 -21469.772467    591.378713
PG20  19243.247254  -4885.552096  17670.780455    366.736475
PG21 -12289.926088  18265.616646 -13622.537751    101.704385
PG22  21916.833736   6811.124519 -12714.172167    -94.459780
PG23 -19967.453051 -17052.639745   4798.084090    412.462535
PG24   7319.802263 -19142.130044 -17152.532486   -459.039285
PG25 -14789.020557 -19462.484710 -11070.935407    496.028107
PG26 -22130.802773    -22.224146  14773.415927    -66.404442
PG27 -12446.787540  16748.115379  15856.442731    -32.424643
PG28 -24143.391491   4147.100914 -10284.151764   -546.191527
PG29  -5234.879506 -22584.799256  12802.123653   -543.115921
PG30  21443.780593   2740.609943  15761.775791   -229.305430
PG31 -24976.024374   9433.820049  -2015.438517   -216.874385
PG32 -14835.606722  -2769.319554 -21631.105925   -533.235450
PR01   4415.070677  24391.195111  -6039.542969    112.743525
PR02  10600.212389  20325.868462  11162.217018    -38.037742
PR03  11856.166111   4092.199808  22252.241628    115.761801
PR04   6407.572670 -13397.426494  20777.806934    274.551063
PR05  -2214.132241 -24047.533500   8270.547910    144.488370
PR06  -7054.853456  11908.672031 -21406.423415   -131.354275
PR07 -11793.755740  -3937.035942 -22236.212120     99.693422
PR08  -6210.469600  13713.759108 -20515.282629     -6.301699
PR09 -19201.459263 -10832.248495 -12743.041001    234.642938
PR11 -17952.819266   4105.956371  17645.123703     -4.238118
PR12   1699.647775  11671.993515  22631.438445     50.121603
PR14  24856.598588   4192.616292  -3966.262432     27.669803
PR15  16574.903095  -5022.942653 -18718.736578     71.755032
PR16  -1589.054850 -11486.498409 -22714.573268     32.824266
PR17  17834.928849  -6789.680068 -16894.808518    161.303112
PR18  18944.806506 -16984.863239  -2162.183874    184.155469
PR19  12416.025810 -18660.023382  12183.410713   -307.079270
PR20  -5635.260853  -8934.733472  23232.040720   -125.076435
PR21 -17373.515195   5616.993972  17826.108778   -171.880026
PR22 -18960.703342  17028.335695    922.675266    -58.029846
PR24   6829.467354   8582.269422 -23009.528216    -90.004172
*  2025 01 28  4 45  0.00000000
PG01  -7094.558382  17525.190358 -18645.962116     81.936478
PG02  -8007.943926  18827.699064 -16249.750346   -257.163105
PG03   4103.893534  17692.915994 -19584.818922    654.035068
PG04   -412.679709  26426.477783   1587.506358    518.647916
PG05  10715.039763 -10848.306168  21581.374717   -200.301664
PG06  23808.442698  -4339.865352 -11024.090846   -148.938981
PG07   9699.036118  12518.584362  21894.015072    -13.393554
PG08  -6368.396020  23672.626506   9483.763007    469.580208
PG09   7136.132173  23443.713301  10070.529325    545.674819
PG10 -23993.367969  -9873.391418  -6214.823667   -295.110152
PG11  23702.035790 -11911.104840    339.781470   -750.164088
PG12   -236.115172 -17512.608400 -20272.449649   -566.979276
PG13  13173.796218 -17217.970992  14942.933237    694.801966
PG14  23455.643843  12396.063555  -2901.499710    588.156333
PG15   2834.185401 -24749.724463   8488.509185    256.788804
PG16 -16602.162468   5092.664257  19860.813251    -67.054662
PG17  12987.604853  10904.577492 -19981.174223    453.633730
PG18 -11446.260458 -10545.804176  21583.809173   -656.052109
PG19  15244.139383    212.956912 -21863.238713    591.382726
PG20  20936.546718  -3987.472569  15858.773539    366.736203
PG21 -13726.080254  18830.448360 -11244.178634    101.704808
PG22  22845.592417   7861.543655 -10288.264855    -94.461412
PG23 -19286.585628 -16830.837187   7567.497381    412.469170
PG24   8957.599047 -19925.015089 -15299.593673   -459.035290
PG25 -13536.298428 -18933.792585 -13397.283932    496.027537
PG26 -23420.417397   -986.319586  12661.387024    -66.418852
PG27 -12555.202505  14753.418115  17656.745133    -32.424112
PG28 -23093.722066   3328.656703 -12708.891875   -546.199721
PG29  -4856.404905 -23881.740911  10364.696715   -543.112784
PG30  19859.649740   3761.847096  17520.429170   -229.297734
PG31 -24756.625326   9060.815300  -4802.369800   -216.873572
PG32 -14701.014825  -5268.092486 -21277.673719   -533.228807
PR01   4252.817951  23460.636869  -9075.373076    112.744645
PR02  11087.977046  21424.854939   8230.040295    -38.037385
PR03  12691.374304   6626.899779  21146.090724    115.762444
PR04   7080.351248 -10849.904796  22009.781983    274.552667
PR05  -2043.613735 -22848.047249  11199.125915    144.488927
PR06  -7809.729400   9305.296521 -22408.121707   -131.353930
PR07 -12632.867957  -6491.499053 -21156.732757     99.693996
PR08  -6914.748821  11181.625137 -21786.256540     -6.301604
PR09 -17512.933355 -10441.479277 -15258.175753    234.644892
PR11 -19966.569665   3767.031663  15414.093772     -4.240938
PR12  -1039.316473  11043.582504  22985.334204     50.121974
PR14  25167.912884   4140.979998   -788.310340     27.669864
PR15  18725.353470  -4622.651099 -16685.530405     71.754684
PR16   1165.618108 -10861.534100 -23048.048047     32.824579
PR17  16231.441663  -5255.258674 -18936.617226    161.306023
PR18  18475.510313 -16790.297271  -5352.939516    184.157290
PR19  13234.951612 -19722.483424   9307.767183   -307.080460
PR20  -3615.443957 -10931.240431  22779.566073   -125.076847
PR21 -15684.273551   4025.711200  19720.580315   -171.882935
PR22 -18641.493721  16913.733961   4115.389953    -58.031461
PR24   4914.892722  10654.436487 -22630.047087    -90.005616
EOF
